{
  "norad_id": 54671,
  "name": "ONEWEB-0607",
  "history": [
    {
      "epoch": "2026-03-28T21:18:52.378272",
      "apogee_km": 1178.981422076552,
      "perigee_km": 1176.5112526958937,
      "latitude_deg": 84.46880985512703,
      "longitude_deg": 92.35819808021188,
      "semi_major_axis_km": 7555.883337386223,
      "eccentricity": 0.00016346,
      "inclination_deg": 87.9179,
      "raan_deg": 259.9688,
      "arg_perigee_deg": 101.148,
      "mean_anomaly_deg": 258.9838,
      "mean_motion_rev_day": 13.21827845
    },
    {
      "epoch": "2026-03-29T04:34:53.050656",
      "apogee_km": 1178.9919081279331,
      "perigee_km": 1176.5029997887996,
      "latitude_deg": 20.537734098337157,
      "longitude_deg": 121.42561184009537,
      "semi_major_axis_km": 7555.884453958366,
      "eccentricity": 0.0001647,
      "inclination_deg": 87.918,
      "raan_deg": 259.9082,
      "arg_perigee_deg": 101.2823,
      "mean_anomaly_deg": 258.8496,
      "mean_motion_rev_day": 13.21827552
    }
  ]
}